ONEWEB-0264             
1 48982U 21060R   24036.92280513  .00000122  00000+0  28680-3 0  9996
2 48982  87.9048  40.3931 0001934  89.2705 270.8647 13.16593417126134
ONEWEB-0266             
1 48984U 21060T   24036.94417423  .00000001  00000+0 -30947-4 0  9999
2 48984  87.9047  40.3697 0001704  87.9212 272.2114 13.16594052126127
ONEWEB-0267             
1 48985U 21060U   24036.95526590  .00000024  00000+0  28576-4 0  9996
2 48985  87.9044  40.3685 0002295  90.6254 269.5140 13.16593909126134
ONEWEB-0268             
1 48986U 21060V   24036.92360333  .00000092  00000+0  20587-3 0  9993
2 48986  87.9045  40.3808 0001977  93.7329 266.4028 13.16595059126393
ONEWEB-0269             
1 48987U 21060W   24036.90459112  .00000104  00000+0  23805-3 0  9996
2 48987  87.9046  40.4063 0001790  91.8451 268.2884 13.16595794126168
ONEWEB-0270             
1 48988U 21060X   24036.92202290  .00000067  00000+0  14249-3 0  9992
2 48988  87.9043  40.3912 0002338  77.9798 282.1595 13.16595620126203
ONEWEB-0271             
1 48989U 21060Y   24036.90934359  .00000113  00000+0  26067-3 0  9992
2 48989  87.9043  40.3686 0002256  86.6822 273.4567 13.16592883126206
ONEWEB-0272             
1 48990U 21060Z   24036.93150681 -.00002752  00000+0 -72344-2 0  9996
2 48990  87.9047  40.3912 0002450  86.1175 274.0236 13.16607671126152
